[{"OBJECT_NAME":"HERMES-3","OBJECT_ID":"2025-052BR","EPOCH":"2026-03-09T22:30:01.073952","MEAN_MOTION":15.30039786,"ECCENTRICITY":0.00079928,"INCLINATION":97.3987,"RA_OF_ASC_NODE":324.6131,"ARG_OF_PERICENTER":112.9583,"MEAN_ANOMALY":247.2502,"EPHEMERIS_TYPE":0,"CLASSIFICATION_TYPE":"U","NORAD_CAT_ID":63835,"ELEMENT_SET_NO":999,"REV_AT_EPOCH":5486,"BSTAR":0.0006995793,"MEAN_MOTION_DOT":0.00020316,"MEAN_MOTION_DDOT":0},{"OBJECT_NAME":"STARLINK-34097","OBJECT_ID":"2025-095P","EPOCH":"2026-03-09T07:49:32.924928","MEAN_MOTION":15.2757957,"ECCENTRICITY":6.263e-5,"INCLINATION":42.9972,"RA_OF_ASC_NODE":178.1411,"ARG_OF_PERICENTER":237.0962,"MEAN_ANOMALY":122.9829,"EPHEMERIS_TYPE":0,"CLASSIFICATION_TYPE":"U","NORAD_CAT_ID":63903,"ELEMENT_SET_NO":999,"REV_AT_EPOCH":4772,"BSTAR":0.00096946773,"MEAN_MOTION_DOT":0.00026511,"MEAN_MOTION_DDOT":0}]
